{
    "links": {
        "self": "http://www.neowsapp.com/rest/v1/neo/54005665?api_key=iIulBulltgU6a56xZRHN4H3l9WmuAYTsLGpBGhQ2"
    },
    "id": "54005665",
    "neo_reference_id": "54005665",
    "name": "(2020 DU3)",
    "designation": "2020 DU3",
    "nasa_jpl_url": "http://ssd.jpl.nasa.gov/sbdb.cgi?sstr=54005665",
    "absolute_magnitude_h": 24.84,
    "estimated_diameter": {
        "kilometers": {
            "estimated_diameter_min": 0.0286124454,
            "estimated_diameter_max": 0.0639793729
        },
        "meters": {
            "estimated_diameter_min": 28.6124453783,
            "estimated_diameter_max": 63.9793728683
        },
        "miles": {
            "estimated_diameter_min": 0.0177789438,
            "estimated_diameter_max": 0.0397549269
        },
        "feet": {
            "estimated_diameter_min": 93.8728552949,
            "estimated_diameter_max": 209.9060856814
        }
    },
    "is_potentially_hazardous_asteroid": false,
    "close_approach_data": [
        {
            "close_approach_date": "2020-02-24",
            "close_approach_date_full": "2020-Feb-24 23:31",
            "epoch_date_close_approach": 1582587060000,
            "relative_velocity": {
                "kilometers_per_second": "13.1298847153",
                "kilometers_per_hour": "47267.5849752211",
                "miles_per_hour": "29370.2391197423"
            },
            "miss_distance": {
                "astronomical": "0.0570532888",
                "lunar": "22.1937293432",
                "kilometers": "8535050.480974856",
                "miles": "5303434.4453547728"
            },
            "orbiting_body": "Earth"
        }
    ],
    "orbital_data": {
        "orbit_id": "3",
        "orbit_determination_date": "2020-03-01 05:07:33",
        "first_observation_date": "2020-02-25",
        "last_observation_date": "2020-02-29",
        "data_arc_in_days": 4,
        "observations_used": 32,
        "orbit_uncertainty": "8",
        "minimum_orbit_intersection": ".050903",
        "jupiter_tisserand_invariant": "3.742",
        "epoch_osculation": "2458906.5",
        "eccentricity": ".4531271857759401",
        "semi_major_axis": "1.899953973599723",
        "inclination": "21.30366290114376",
        "ascending_node_longitude": "334.0676137916661",
        "orbital_period": "956.5618304902466",
        "perihelion_distance": "1.039033176438666",
        "perihelion_argument": "174.9226462849092",
        "aphelion_distance": "2.76087477076078",
        "perihelion_time": "2458899.955832399103",
        "mean_anomaly": "2.462883486701011",
        "mean_motion": ".3763478622343698",
        "equinox": "J2000",
        "orbit_class": {
            "orbit_class_type": "AMO",
            "orbit_class_description": "Near-Earth asteroid orbits similar to that of 1221 Amor",
            "orbit_class_range": "1.017 AU < q (perihelion) < 1.3 AU"
        }
    },
    "is_sentry_object": false
}